COSMOS 2251 DEB         
1 34793U 93036AAW 26095.61790770  .00000923  00000+0  30378-3 0  9993
2 34793  74.0038  39.9390 0051467 169.6134 245.5808 14.38842519889682
COSMOS 2251 DEB         
1 34796U 93036AAZ 26095.75221830  .00003508  00000+0  87003-3 0  9996
2 34796  74.0332   2.4605 0097591  77.4457 313.5219 14.49390036896794
COSMOS 2251 DEB         
1 34797U 93036ABA 26095.39327583  .00006065  00000+0  17192-2 0  9991
2 34797  73.9764 247.9785 0070536 334.4787  25.2893 14.44244937890555
COSMOS 2251 DEB         
1 34813U 93036ABC 26090.60894719  .00003265  00000+0  28017-2 0  9996
2 34813  73.9338 318.0296 0435724 331.7268  26.0788 13.51109615831250
COSMOS 2251 DEB         
1 34814U 93036ABD 26095.79664830  .00002440  00000+0  81072-3 0  9996
2 34814  73.8926 113.8342 0054915 334.5840 203.6693 14.37436027889719
COSMOS 2251 DEB         
1 34815U 93036ABE 26095.80701012  .00008781  00000+0  11313-2 0  9997
2 34815  74.0472  17.4975 0053665  58.6877 301.9537 14.80158338903142
COSMOS 2251 DEB         
1 34816U 93036ABF 26094.61697300  .00000904  00000+0  80698-3 0  9992
2 34816  73.8881 318.9208 0371972   3.1298  27.7445 13.58599445843166
COSMOS 2251 DEB         
1 34818U 93036ABH 26095.44048821  .00000792  00000+0  27429-3 0  9992
2 34818  74.0332  87.8489 0023726 142.7969  11.6942 14.37134804890035
COSMOS 2251 DEB         
1 34819U 93036ABJ 26095.79238020  .00007817  00000+0  14332-2 0  9996
2 34819  74.0170 283.0547 0014313 350.1046  28.3337 14.65851474898990
COSMOS 2251 DEB         
1 34823U 93036ABN 26095.85355097  .00002327  00000+0  46203-3 0  9996
2 34823  74.0404 246.1457 0154065 301.4471  57.1706 14.55505649900415
COSMOS 2251 DEB         
1 34845U 93036ABP 26095.82773588  .00001053  00000+0  30161-3 0  9997
2 34845  74.0230 295.3522 0020831  69.6169 290.7224 14.46113803891152
COSMOS 2251 DEB         
1 34846U 93036ABQ 26095.85093663  .00003539  00000+0  95731-3 0  9995
2 34846  74.0316  48.2421 0023535  93.4530 266.9321 14.47961232890556
COSMOS 2251 DEB         
1 34852U 93036ABW 26095.56148978  .00000442  00000+0  15739-3 0  9990
2 34852  74.0331  53.6210 0015702 137.3213 222.9163 14.37099423891694
COSMOS 2251 DEB         
1 34854U 93036ABY 26092.82108330  .00004381  00000+0  59403-3 0  9998
2 34854  74.0280 300.6201 0063039  23.4118 336.9904 14.77839357735226
COSMOS 2251 DEB         
1 34856U 93036ACA 26095.76762304  .00036699  00000+0  20323-2 0  9998
2 34856  74.0023 209.0748 0032076 314.0914 197.8119 15.13211460908326
COSMOS 2251 DEB         
1 34857U 93036ACB 26095.47371097  .00004515  00000+0  92062-3 0  9994
2 34857  74.0144 249.6921 0064607 345.0580  71.7950 14.59947414895605
