[{"OBJECT_NAME":"COSMOS 2251 DEB","OBJECT_ID":"1993-036AAW","EPOCH":"2026-04-05T14:49:47.225280","MEAN_MOTION":14.38842519,"ECCENTRICITY":0.0051467,"INCLINATION":74.0038,"RA_OF_ASC_NODE":39.939,"ARG_OF_PERICENTER":169.6134,"MEAN_ANOMALY":245.5808,"EPHEMERIS_TYPE":0,"CLASSIFICATION_TYPE":"U","NORAD_CAT_ID":34793,"ELEMENT_SET_NO":999,"REV_AT_EPOCH":88968,"BSTAR":0.00030378,"MEAN_MOTION_DOT":9.23e-6,"MEAN_MOTION_DDOT":0},{"OBJECT_NAME":"COSMOS 2251 DEB","OBJECT_ID":"1993-036AAZ","EPOCH":"2026-04-05T18:03:11.661120","MEAN_MOTION":14.49390036,"ECCENTRICITY":0.0097591,"INCLINATION":74.0332,"RA_OF_ASC_NODE":2.4605,"ARG_OF_PERICENTER":77.4457,"MEAN_ANOMALY":313.5219,"EPHEMERIS_TYPE":0,"CLASSIFICATION_TYPE":"U","NORAD_CAT_ID":34796,"ELEMENT_SET_NO":999,"REV_AT_EPOCH":89679,"BSTAR":0.00087003,"MEAN_MOTION_DOT":3.508e-5,"MEAN_MOTION_DDOT":0},{"OBJECT_NAME":"COSMOS 2251 DEB","OBJECT_ID":"1993-036ABA","EPOCH":"2026-04-05T09:26:19.031712","MEAN_MOTION":14.44244937,"ECCENTRICITY":0.0070536,"INCLINATION":73.9764,"RA_OF_ASC_NODE":247.9785,"ARG_OF_PERICENTER":334.4787,"MEAN_ANOMALY":25.2893,"EPHEMERIS_TYPE":0,"CLASSIFICATION_TYPE":"U","NORAD_CAT_ID":34797,"ELEMENT_SET_NO":999,"REV_AT_EPOCH":89055,"BSTAR":0.0017192071,"MEAN_MOTION_DOT":6.065e-5,"MEAN_MOTION_DDOT":0},{"OBJECT_NAME":"COSMOS 2251 DEB","OBJECT_ID":"1993-036ABC","EPOCH":"2026-03-31T14:36:53.037216","MEAN_MOTION":13.51109615,"ECCENTRICITY":0.0435724,"INCLINATION":73.9338,"RA_OF_ASC_NODE":318.0296,"ARG_OF_PERICENTER":331.7268,"MEAN_ANOMALY":26.0788,"EPHEMERIS_TYPE":0,"CLASSIFICATION_TYPE":"U","NORAD_CAT_ID":34813,"ELEMENT_SET_NO":999,"REV_AT_EPOCH":83125,"BSTAR":0.0028017,"MEAN_MOTION_DOT":3.265e-5,"MEAN_MOTION_DDOT":0},{"OBJECT_NAME":"COSMOS 2251 DEB","OBJECT_ID":"1993-036ABD","EPOCH":"2026-04-05T19:07:10.413120","MEAN_MOTION":14.37436027,"ECCENTRICITY":0.0054915,"INCLINATION":73.8926,"RA_OF_ASC_NODE":113.8342,"ARG_OF_PERICENTER":334.584,"MEAN_ANOMALY":203.6693,"EPHEMERIS_TYPE":0,"CLASSIFICATION_TYPE":"U","NORAD_CAT_ID":34814,"ELEMENT_SET_NO":999,"REV_AT_EPOCH":88971,"BSTAR":0.00081072,"MEAN_MOTION_DOT":2.44e-5,"MEAN_MOTION_DDOT":0},{"OBJECT_NAME":"COSMOS 2251 DEB","OBJECT_ID":"1993-036ABE","EPOCH":"2026-04-05T19:22:05.674368","MEAN_MOTION":14.80158338,"ECCENTRICITY":0.0053665,"INCLINATION":74.0472,"RA_OF_ASC_NODE":17.4975,"ARG_OF_PERICENTER":58.6877,"MEAN_ANOMALY":301.9537,"EPHEMERIS_TYPE":0,"CLASSIFICATION_TYPE":"U","NORAD_CAT_ID":34815,"ELEMENT_SET_NO":999,"REV_AT_EPOCH":90314,"BSTAR":0.0011313,"MEAN_MOTION_DOT":8.781e-5,"MEAN_MOTION_DDOT":0},{"OBJECT_NAME":"COSMOS 2251 DEB","OBJECT_ID":"1993-036ABF","EPOCH":"2026-04-04T14:48:26.467200","MEAN_MOTION":13.58599445,"ECCENTRICITY":0.0371972,"INCLINATION":73.8881,"RA_OF_ASC_NODE":318.9208,"ARG_OF_PERICENTER":3.1298,"MEAN_ANOMALY":27.7445,"EPHEMERIS_TYPE":0,"CLASSIFICATION_TYPE":"U","NORAD_CAT_ID":34816,"ELEMENT_SET_NO":999,"REV_AT_EPOCH":84316,"BSTAR":0.00080698,"MEAN_MOTION_DOT":9.04e-6,"MEAN_MOTION_DDOT":0},{"OBJECT_NAME":"COSMOS 2251 DEB","OBJECT_ID":"1993-036ABH","EPOCH":"2026-04-05T10:34:18.181344","MEAN_MOTION":14.37134804,"ECCENTRICITY":0.00237262,"INCLINATION":74.0332,"RA_OF_ASC_NODE":87.8489,"ARG_OF_PERICENTER":142.7969,"MEAN_ANOMALY":11.6942,"EPHEMERIS_TYPE":0,"CLASSIFICATION_TYPE":"U","NORAD_CAT_ID":34818,"ELEMENT_SET_NO":999,"REV_AT_EPOCH":89003,"BSTAR":0.00027429171,"MEAN_MOTION_DOT":7.92e-6,"MEAN_MOTION_DDOT":0},{"OBJECT_NAME":"COSMOS 2251 DEB","OBJECT_ID":"1993-036ABJ","EPOCH":"2026-04-05T19:01:01.649280","MEAN_MOTION":14.65851474,"ECCENTRICITY":0.0014313,"INCLINATION":74.017,"RA_OF_ASC_NODE":283.0547,"ARG_OF_PERICENTER":350.1046,"MEAN_ANOMALY":28.3337,"EPHEMERIS_TYPE":0,"CLASSIFICATION_TYPE":"U","NORAD_CAT_ID":34819,"ELEMENT_SET_NO":999,"REV_AT_EPOCH":89899,"BSTAR":0.0014332,"MEAN_MOTION_DOT":7.817e-5,"MEAN_MOTION_DDOT":0},{"OBJECT_NAME":"COSMOS 2251 DEB","OBJECT_ID":"1993-036ABN","EPOCH":"2026-04-05T20:29:06.803808","MEAN_MOTION":14.55505649,"ECCENTRICITY":0.0154065,"INCLINATION":74.0404,"RA_OF_ASC_NODE":246.1457,"ARG_OF_PERICENTER":301.4471,"MEAN_ANOMALY":57.1706,"EPHEMERIS_TYPE":0,"CLASSIFICATION_TYPE":"U","NORAD_CAT_ID":34823,"ELEMENT_SET_NO":999,"REV_AT_EPOCH":90041,"BSTAR":0.00046203,"MEAN_MOTION_DOT":2.327e-5,"MEAN_MOTION_DDOT":0},{"OBJECT_NAME":"COSMOS 2251 DEB","OBJECT_ID":"1993-036ABP","EPOCH":"2026-04-05T19:51:56.380032","MEAN_MOTION":14.46113803,"ECCENTRICITY":0.0020831,"INCLINATION":74.023,"RA_OF_ASC_NODE":295.3522,"ARG_OF_PERICENTER":69.6169,"MEAN_ANOMALY":290.7224,"EPHEMERIS_TYPE":0,"CLASSIFICATION_TYPE":"U","NORAD_CAT_ID":34845,"ELEMENT_SET_NO":999,"REV_AT_EPOCH":89115,"BSTAR":0.00030161,"MEAN_MOTION_DOT":1.053e-5,"MEAN_MOTION_DDOT":0},{"OBJECT_NAME":"COSMOS 2251 DEB","OBJECT_ID":"1993-036ABQ","EPOCH":"2026-04-05T20:25:20.924832","MEAN_MOTION":14.47961232,"ECCENTRICITY":0.0023535,"INCLINATION":74.0316,"RA_OF_ASC_NODE":48.2421,"ARG_OF_PERICENTER":93.453,"MEAN_ANOMALY":266.9321,"EPHEMERIS_TYPE":0,"CLASSIFICATION_TYPE":"U","NORAD_CAT_ID":34846,"ELEMENT_SET_NO":999,"REV_AT_EPOCH":89055,"BSTAR":0.00095731,"MEAN_MOTION_DOT":3.539e-5,"MEAN_MOTION_DDOT":0},{"OBJECT_NAME":"COSMOS 2251 DEB","OBJECT_ID":"1993-036ABW","EPOCH":"2026-04-05T13:28:32.716992","MEAN_MOTION":14.37099423,"ECCENTRICITY":0.0015702,"INCLINATION":74.0331,"RA_OF_ASC_NODE":53.621,"ARG_OF_PERICENTER":137.3213,"MEAN_ANOMALY":222.9163,"EPHEMERIS_TYPE":0,"CLASSIFICATION_TYPE":"U","NORAD_CAT_ID":34852,"ELEMENT_SET_NO":999,"REV_AT_EPOCH":89169,"BSTAR":0.00015739,"MEAN_MOTION_DOT":4.42e-6,"MEAN_MOTION_DDOT":0},{"OBJECT_NAME":"COSMOS 2251 DEB","OBJECT_ID":"1993-036ABY","EPOCH":"2026-04-02T19:42:21.597120","MEAN_MOTION":14.77839357,"ECCENTRICITY":0.00630395,"INCLINATION":74.028,"RA_OF_ASC_NODE":300.6201,"ARG_OF_PERICENTER":23.4118,"MEAN_ANOMALY":336.9904,"EPHEMERIS_TYPE":0,"CLASSIFICATION_TYPE":"U","NORAD_CAT_ID":34854,"ELEMENT_SET_NO":999,"REV_AT_EPOCH":73522,"BSTAR":0.00059402594,"MEAN_MOTION_DOT":4.381e-5,"MEAN_MOTION_DDOT":0},{"OBJECT_NAME":"COSMOS 2251 DEB","OBJECT_ID":"1993-036ACA","EPOCH":"2026-04-05T18:25:22.630656","MEAN_MOTION":15.1321146,"ECCENTRICITY":0.0032076,"INCLINATION":74.0023,"RA_OF_ASC_NODE":209.0748,"ARG_OF_PERICENTER":314.0914,"MEAN_ANOMALY":197.8119,"EPHEMERIS_TYPE":0,"CLASSIFICATION_TYPE":"U","NORAD_CAT_ID":34856,"ELEMENT_SET_NO":999,"REV_AT_EPOCH":90832,"BSTAR":0.0020323,"MEAN_MOTION_DOT":0.00036699,"MEAN_MOTION_DDOT":0},{"OBJECT_NAME":"COSMOS 2251 DEB","OBJECT_ID":"1993-036ACB","EPOCH":"2026-04-05T11:22:08.627808","MEAN_MOTION":14.59947414,"ECCENTRICITY":0.0064607,"INCLINATION":74.0144,"RA_OF_ASC_NODE":249.6921,"ARG_OF_PERICENTER":345.058,"MEAN_ANOMALY":71.795,"EPHEMERIS_TYPE":0,"CLASSIFICATION_TYPE":"U","NORAD_CAT_ID":34857,"ELEMENT_SET_NO":999,"REV_AT_EPOCH":89560,"BSTAR":0.00092062046,"MEAN_MOTION_DOT":4.515e-5,"MEAN_MOTION_DDOT":0}]
